ONEWEB-0350             
1 49214U 21083AE  25246.76911465 -.00000215  00000+0 -62419-3 0  9996
2 49214  87.9023  17.1179 0001806 108.3019 251.8307 13.13470964193337
ONEWEB-0351             
1 49215U 21083AF  25246.74700747  .00000058  00000+0  11180-3 0  9996
2 49215  87.9300 331.5299 0001006 106.7279 253.3965 13.20771295198964
ONEWEB-0352             
1 49216U 21083AG  25246.90200796  .00000265  00000+0  68992-3 0  9997
2 49216  87.9009  17.1286 0001258  98.8497 261.2775 13.13469726193446
ONEWEB-0354             
1 49217U 21083AH  25246.77238556  .00000020  00000+0  16623-4 0  9992
2 49217  87.9295 331.5236 0002002 107.0392 253.0961 13.20774105199009
ONEWEB-0355             
1 49218U 21083AJ  25246.93091796 -.00000234  00000+0 -67527-3 0  9991
2 49218  87.9022  17.1272 0001639 104.6242 255.5069 13.13468702193327
ONEWEB-0357             
1 49219U 21083AK  25246.76922719 -.00000019  00000+0 -77727-4 0  9996
2 49219  87.9288 331.5251 0001748 102.2618 257.8711 13.20773459199000
ONEWEB-0332             
1 49279U 21090A   25246.78741096  .00000034  00000+0  57411-4 0  9992
2 49279  87.9092 346.7353 0001664  93.7413 266.3908 13.14502691189951
ONEWEB-0347             
1 49280U 21090B   25246.75976042 -.00000045  00000+0 -14351-3 0  9991
2 49280  87.9292 331.5399 0001867  87.4261 272.7086 13.20770058193238
